STARLINK-32702          
1 62432U 24251A   26200.91825794  .02787114  00000+0  73949-1 0  9998
2 62432  53.1599  78.2453 0010859 303.7033  56.2934 15.34071558 88231
STARLINK-32712          
1 62433U 24251B   26200.93237869  .00012649  00000+0  43835-3 0  9996
2 62433  53.1591  81.1682 0001697 100.8046 259.3146 15.30208961 88193
STARLINK-32674          
1 62434U 24251C   26200.94456967  .00009183  00000+0  28256-3 0  9999
2 62434  53.1567  79.8343 0000977  81.2286 278.8827 15.34401206 88219
STARLINK-32711          
1 62435U 24251D   26200.92921451  .00005850  00000+0  20948-3 0  9990
2 62435  53.1589  81.1506 0001180  89.5703 270.5433 15.30198055 88193
STARLINK-32697          
1 62436U 24251E   26200.98186517  .00006980  00000+0  24754-3 0  9997
2 62436  53.1592  80.7725 0001209  95.0439 265.0700 15.30201712 88209
STARLINK-32693          
1 62437U 24251F   26200.96292018  .00016065  00000+0  48547-3 0  9991
2 62437  53.1584  77.7441 0001214 103.2056 256.9082 15.34407436 88246
STARLINK-32721          
1 62438U 24251G   26200.95929802  .00011924  00000+0  36350-3 0  9997
2 62438  53.1587  79.9215 0001179  92.0264 268.0873 15.34398531 88156
STARLINK-32709          
1 62439U 24251H   26200.96350730  .00023410  00000+0  70175-3 0  9993
2 62439  53.1585  79.9539 0001190  83.8592 276.2547 15.34403060 88219
STARLINK-32689          
1 62440U 24251J   26201.08115303  .00012082  00000+0  36811-3 0  9996
2 62440  53.1584  79.2610 0001183  98.3546 261.7591 15.34402302 88233
STARLINK-32724          
1 62441U 24251K   26200.94668584  .00005156  00000+0  16374-3 0  9991
2 62441  53.1571  79.8515 0000682 110.5390 249.5686 15.34374436 88052
STARLINK-32291          
1 62442U 24251L   26200.98502814  .00006681  00000+0  23743-3 0  9991
2 62442  53.1593  80.7889 0001333  89.4727 270.6426 15.30208274 87894
STARLINK-32736          
1 62443U 24251M   26200.99242041  .00005651  00000+0  20281-3 0  9996
2 62443  53.1581  80.8363 0001497  69.0421 291.0740 15.30196788 88046
STARLINK-32737          
1 62444U 24251N   26201.03227450  .00011137  00000+0  34029-3 0  9991
2 62444  53.1597  77.5384 0001512  94.3593 265.7583 15.34398652 88253
STARLINK-32683          
1 62445U 24251P   26200.94877741  .00009520  00000+0  29246-3 0  9993
2 62445  53.1584  79.8544 0001299  97.6180 262.4970 15.34406922 88213
STARLINK-32726          
1 62446U 24251Q   26200.88785072  .00013944  00000+0  42292-3 0  9993
2 62446  53.1585  80.1891 0001261  75.8593 284.2549 15.34409480 87899
STARLINK-32719          
1 62448U 24251S   26200.92780948  .00010878  00000+0  33262-3 0  9997
2 62448  53.1598  80.2902 0001593  95.2514 264.8671 15.34399954 88037
STARLINK-32723          
1 62449U 24251T   26200.87522551  .00005748  00000+0  18114-3 0  9995
2 62449  53.1589  80.1106 0001229  91.3816 268.7328 15.34396516 88045
STARLINK-32722          
1 62450U 24251U   26200.96560979  .00006255  00000+0  19612-3 0  9991
2 62450  53.1587  79.9580 0001326  83.1967 276.9186 15.34399077 87846
STARLINK-32720          
1 62451U 24251V   26200.95509314  .00023573  00000+0  70582-3 0  9992
2 62451  53.1590  79.8982 0001276  69.5677 290.5463 15.34435971 87840
STARLINK-32656          
1 62452U 24251W   26200.95719426  .00012757  00000+0  38806-3 0  9995
2 62452  53.1570  79.9045 0001128  87.8299 272.2833 15.34399636 88058
STARLINK-32690          
1 62453U 24251X   26200.90257843  .00011361  00000+0  34696-3 0  9994
2 62453  53.1582  80.2803 0001251  96.2691 263.8454 15.34390647 87828
STARLINK-11518 [DTC]    
1 62462U 24254A   26200.92217726  .00162985  00000+0  12432-2 0  9997
2 62462  43.0000 146.3182 0001850 240.4646 119.6037 15.70949594 90205
STARLINK-11455 [DTC]    
1 62463U 24254B   26200.99107320  .00124597  00000+0  95954-3 0  9991
2 62463  43.0002 145.9769 0001970 282.2152  77.8495 15.70851168 90205
STARLINK-11178 [DTC]    
1 62465U 24254D   26201.22947777  .00106963  00000+0  82574-3 0  9999
2 62465  43.0017 144.3159 0002229 280.4281  79.6335 15.70857663 90085
STARLINK-11506 [DTC]    
1 62466U 24254E   26201.12342102  .00144028  00000+0  11016-2 0  9996
2 62466  43.0025 144.3549 0002034 244.3818 115.6839 15.70947453 90073
STARLINK-11486 [DTC]    
1 62467U 24254F   26201.23478801  .00126363  00000+0  96934-3 0  9990
2 62467  43.0011 144.3574 0002206 273.6173  86.4443 15.70937880 90245
STARLINK-11511 [DTC]    
1 62468U 24254G   26201.21354012  .00119141  00000+0  91622-3 0  9991
2 62468  43.0026 144.1861 0004718 256.5410 103.4932 15.70894662 90246
STARLINK-11505 [DTC]    
1 62469U 24254H   26201.20292697  .00133814  00000+0  10248-2 0  9998
2 62469  43.0040 144.1004 0003186 263.9684  96.0821 15.70947584 90230
STARLINK-11497 [DTC]    
1 62470U 24254J   26201.21885970  .00155045  00000+0  11880-2 0  9996
2 62470  43.0021 144.2268 0001960 276.1829  83.8816 15.70867658 90241
STARLINK-11477 [DTC]    
1 62471U 24254K   26201.19762124  .00105088  00000+0  81163-3 0  9993
2 62471  43.0014 144.0554 0001924 271.7906  88.2742 15.70854887 90233
